STARLINK-1206_new
1 15204C 20012AC  21326.14863936  .00009265  00000-0  62059-3 0  3265
2 15204  53.0518 228.0618 0001985  64.6702  89.1313 15.06399714    15
STARLINK-1206_old
1 25204C 20012AC  21325.07568176  .00005556  00000-0  37228-3 0  3252
2 25204  53.0524 232.8785 0001889  63.5150  28.3718 15.06391678    13
